{
  "type": "FeatureCollection",
  "features": [
    {
      "type": "Feature",
      "properties": {
        "norad_id": 37238,
        "name": "INTELSAT 17 (IS-17)",
        "group": "intelsat",
        "lat": 0.02177150121067296,
        "lon": 70.02872022368085,
        "alt_km": 35796.04495629207,
        "timestamp": "2025-12-10T18:56:59.729713+00:00",
        "meta_object_name": "INTELSAT 17 (IS-17)",
        "meta_object_id": "2010-065B",
        "meta_epoch": "2025-12-10T08:41:38.596128",
        "meta_mean_motion": 1.00272645,
        "meta_eccentricity": 0.0002468,
        "meta_inclination": 0.013,
        "meta_ra_of_asc_node": 291.2623,
        "meta_arg_of_pericenter": 330.6485,
        "meta_mean_anomaly": 13.8548,
        "meta_ephemeris_type": 0,
        "meta_classification_type": "U",
        "meta_norad_cat_id": 37238,
        "meta_element_set_no": 999,
        "meta_rev_at_epoch": 5135,
        "meta_bstar": 0,
        "meta_mean_motion_dot": 2e-08,
        "meta_mean_motion_ddot": 0,
        "tle_line1": "1 37238U 10065B   25344.36225227  .00000002  00000+0  00000+0 0  9992",
        "tle_line2": "2 37238   0.0130 291.2623 0002468 330.6485  13.8548  1.00272645 51353"
      },
      "geometry": {
        "type": "Point",
        "coordinates": [
          70.02872022368085,
          0.02177150121067296
        ]
      }
    },
    {
      "type": "Feature",
      "properties": {
        "norad_id": 37392,
        "name": "INTELSAT 28 (IS-28)",
        "group": "intelsat",
        "lat": -1.2207118505185195,
        "lon": -27.652788243021597,
        "alt_km": 35780.12920140911,
        "timestamp": "2025-12-10T18:56:59.729724+00:00",
        "meta_object_name": "INTELSAT 28 (IS-28)",
        "meta_object_id": "2011-016A",
        "meta_epoch": "2025-12-09T20:16:17.405760",
        "meta_mean_motion": 1.00272229,
        "meta_eccentricity": 0.00039615,
        "meta_inclination": 1.3173,
        "meta_ra_of_asc_node": 85.0894,
        "meta_arg_of_pericenter": 178.4571,
        "meta_mean_anomaly": 87.656,
        "meta_ephemeris_type": 0,
        "meta_classification_type": "U",
        "meta_norad_cat_id": 37392,
        "meta_element_set_no": 999,
        "meta_rev_at_epoch": 5138,
        "meta_bstar": 0,
        "meta_mean_motion_dot": -2.22e-06,
        "meta_mean_motion_ddot": 0,
        "tle_line1": "1 37392U 11016A   25343.84464590 -.00000222  00000+0  00000+0 0  9995",
        "tle_line2": "2 37392   1.3173  85.0894 0003961 178.4571  87.6560  1.00272229 51381"
      },
      "geometry": {
        "type": "Point",
        "coordinates": [
          -27.652788243021597,
          -1.2207118505185195
        ]
      }
    },
    {
      "type": "Feature",
      "properties": {
        "norad_id": 37834,
        "name": "INTELSAT 18 (IS-18)",
        "group": "intelsat",
        "lat": -0.019935526898113173,
        "lon": -176.02113163524487,
        "alt_km": 35784.92372186625,
        "timestamp": "2025-12-10T18:56:59.729736+00:00",
        "meta_object_name": "INTELSAT 18 (IS-18)",
        "meta_object_id": "2011-056A",
        "meta_epoch": "2025-12-10T11:07:33.904704",
        "meta_mean_motion": 1.00271695,
        "meta_eccentricity": 0.000199,
        "meta_inclination": 0.0186,
        "meta_ra_of_asc_node": 326.5116,
        "meta_arg_of_pericenter": 299.5897,
        "meta_mean_anomaly": 160.2248,
        "meta_ephemeris_type": 0,
        "meta_classification_type": "U",
        "meta_norad_cat_id": 37834,
        "meta_element_set_no": 999,
        "meta_rev_at_epoch": 5191,
        "meta_bstar": 0,
        "meta_mean_motion_dot": 5.7e-07,
        "meta_mean_motion_ddot": 0,
        "tle_line1": "1 37834U 11056A   25344.46358686  .00000057  00000+0  00000+0 0  9992",
        "tle_line2": "2 37834   0.0186 326.5116 0001990 299.5897 160.2248  1.00271695 51914"
      },
      "geometry": {
        "type": "Point",
        "coordinates": [
          -176.02113163524487,
          -0.019935526898113173
        ]
      }
    },
    {
      "type": "Feature",
      "properties": {
        "norad_id": 38098,
        "name": "INTELSAT 22 (IS-22)",
        "group": "intelsat",
        "lat": 0.020609854339793794,
        "lon": 76.14315508387247,
        "alt_km": 35792.24003404179,
        "timestamp": "2025-12-10T18:56:59.729748+00:00",
        "meta_object_name": "INTELSAT 22 (IS-22)",
        "meta_object_id": "2012-011A",
        "meta_epoch": "2025-12-10T08:41:38.596128",
        "meta_mean_motion": 1.00274578,
        "meta_eccentricity": 0.0001744,
        "meta_inclination": 0.0026,
        "meta_ra_of_asc_node": 358.8456,
        "meta_arg_of_pericenter": 277.0782,
        "meta_mean_anomaly": 5.9524,
        "meta_ephemeris_type": 0,
        "meta_classification_type": "U",
        "meta_norad_cat_id": 38098,
        "meta_element_set_no": 999,
        "meta_rev_at_epoch": 529,
        "meta_bstar": 0,
        "meta_mean_motion_dot": -5.6e-07,
        "meta_mean_motion_ddot": 0,
        "tle_line1": "1 38098U 12011A   25344.36225227 -.00000056  00000+0  00000+0 0  9990",
        "tle_line2": "2 38098   0.0026 358.8456 0001744 277.0782   5.9524  1.00274578  5291"
      },
      "geometry": {
        "type": "Point",
        "coordinates": [
          76.14315508387247,
          0.020609854339793794
        ]
      }
    },
    {
      "type": "Feature",
      "properties": {
        "norad_id": 38356,
        "name": "INTELSAT 19 (IS-19)",
        "group": "intelsat",
        "lat": -0.006479693299581281,
        "lon": 169.97174419151762,
        "alt_km": 35787.942132988144,
        "timestamp": "2025-12-10T18:56:59.729759+00:00",
        "meta_object_name": "INTELSAT 19 (IS-19)",
        "meta_object_id": "2012-030A",
        "meta_epoch": "2025-12-10T10:59:58.648416",
        "meta_mean_motion": 1.00271943,
        "meta_eccentricity": 0.0003495,
        "meta_inclination": 0.0088,
        "meta_ra_of_asc_node": 333.7752,
        "meta_arg_of_pericenter": 293.6811,
        "meta_mean_anomaly": 142.9775,
        "meta_ephemeris_type": 0,
        "meta_classification_type": "U",
        "meta_norad_cat_id": 38356,
        "meta_element_set_no": 999,
        "meta_rev_at_epoch": 4855,
        "meta_bstar": 0,
        "meta_mean_motion_dot": -5.2e-07,
        "meta_mean_motion_ddot": 0,
        "tle_line1": "1 38356U 12030A   25344.45831769 -.00000052  00000+0  00000+0 0  9998",
        "tle_line2": "2 38356   0.0088 333.7752 0003495 293.6811 142.9775  1.00271943 48558"
      },
      "geometry": {
        "type": "Point",
        "coordinates": [
          169.97174419151762,
          -0.006479693299581281
        ]
      }
    },
    {
      "type": "Feature",
      "properties": {
        "norad_id": 38740,
        "name": "INTELSAT 20 (IS-20)",
        "group": "intelsat",
        "lat": 4.932432094504694e-05,
        "lon": 72.48413766170202,
        "alt_km": 35790.920164124334,
        "timestamp": "2025-12-10T18:56:59.729772+00:00",
        "meta_object_name": "INTELSAT 20 (IS-20)",
        "meta_object_id": "2012-043A",
        "meta_epoch": "2025-12-10T08:41:38.596128",
        "meta_mean_motion": 1.00270433,
        "meta_eccentricity": 0.0002791,
        "meta_inclination": 0.0057,
        "meta_ra_of_asc_node": 90.638,
        "meta_arg_of_pericenter": 94.1404,
        "meta_mean_anomaly": 93.4813,
        "meta_ephemeris_type": 0,
        "meta_classification_type": "U",
        "meta_norad_cat_id": 38740,
        "meta_element_set_no": 999,
        "meta_rev_at_epoch": 4885,
        "meta_bstar": 0,
        "meta_mean_motion_dot": -2.1e-07,
        "meta_mean_motion_ddot": 0,
        "tle_line1": "1 38740U 12043A   25344.36225227 -.00000021  00000+0  00000+0 0  9991",
        "tle_line2": "2 38740   0.0057  90.6380 0002791  94.1404  93.4813  1.00270433 48856"
      },
      "geometry": {
        "type": "Point",
        "coordinates": [
          72.48413766170202,
          4.932432094504694e-05
        ]
      }
    },
    {
      "type": "Feature",
      "properties": {
        "norad_id": 38749,
        "name": "INTELSAT 21 (IS-21)",
        "group": "intelsat",
        "lat": -0.023187392909006642,
        "lon": -53.98013210900113,
        "alt_km": 35780.70481119529,
        "timestamp": "2025-12-10T18:56:59.729783+00:00",
        "meta_object_name": "INTELSAT 21 (IS-21)",
        "meta_object_id": "2012-045A",
        "meta_epoch": "2025-12-10T03:59:38.770944",
        "meta_mean_motion": 1.00270223,
        "meta_eccentricity": 0.00021227,
        "meta_inclination": 0.0158,
        "meta_ra_of_asc_node": 47.3107,
        "meta_arg_of_pericenter": 209.6362,
        "meta_mean_anomaly": 184.11,
        "meta_ephemeris_type": 0,
        "meta_classification_type": "U",
        "meta_norad_cat_id": 38749,
        "meta_element_set_no": 999,
        "meta_rev_at_epoch": 4862,
        "meta_bstar": 0,
        "meta_mean_motion_dot": -2.82e-06,
        "meta_mean_motion_ddot": 0,
        "tle_line1": "1 38749U 12045A   25344.16642096 -.00000282  00000+0  00000+0 0  9996",
        "tle_line2": "2 38749   0.0158  47.3107 0002122 209.6362 184.1100  1.00270223 48626"
      },
      "geometry": {
        "type": "Point",
        "coordinates": [
          -53.98013210900113,
          -0.023187392909006642
        ]
      }
    }
  ]
}